{
  "type": "FeatureCollection",
  "features": [
    {
      "type": "Feature",
      "properties": {
        "norad_id": 38474,
        "name": "IRIDIUM 33 DEB",
        "group": "iridium-33-debris",
        "lat": 0.925393470247897,
        "lon": -175.24603810486815,
        "alt_km": 738.6649505955675,
        "timestamp": "2025-12-24T18:55:56.457045+00:00",
        "meta_object_name": "IRIDIUM 33 DEB",
        "meta_object_id": "1997-051AAB",
        "meta_epoch": "2025-12-21T07:20:31.212384",
        "meta_mean_motion": 14.50718538,
        "meta_eccentricity": 0.00276153,
        "meta_inclination": 86.3426,
        "meta_ra_of_asc_node": 6.3307,
        "meta_arg_of_pericenter": 61.1056,
        "meta_mean_anomaly": 299.2914,
        "meta_ephemeris_type": 0,
        "meta_classification_type": "U",
        "meta_norad_cat_id": 38474,
        "meta_element_set_no": 999,
        "meta_rev_at_epoch": 65442,
        "meta_bstar": 0.00039085525,
        "meta_mean_motion_dot": 1.564e-05,
        "meta_mean_motion_ddot": 0,
        "tle_line1": "1 38474U 97051AAB 25355.30591681  .00001564  00000+0  39086-3 0  9995",
        "tle_line2": "2 38474  86.3426   6.3307 0027615  61.1056 299.2914 14.50718538654425"
      },
      "geometry": {
        "type": "Point",
        "coordinates": [
          -175.24603810486815,
          0.925393470247897
        ]
      }
    },
    {
      "type": "Feature",
      "properties": {
        "norad_id": 39777,
        "name": "IRIDIUM 33 DEB",
        "group": "iridium-33-debris",
        "lat": 61.1636994524997,
        "lon": -18.172303708350974,
        "alt_km": 659.9925874376513,
        "timestamp": "2025-12-24T18:55:56.457055+00:00",
        "meta_object_name": "IRIDIUM 33 DEB",
        "meta_object_id": "1997-051AAJ",
        "meta_epoch": "2025-12-23T11:03:57.726720",
        "meta_mean_motion": 14.56662937,
        "meta_eccentricity": 0.00604969,
        "meta_inclination": 85.9633,
        "meta_ra_of_asc_node": 169.8413,
        "meta_arg_of_pericenter": 150.614,
        "meta_mean_anomaly": 209.8492,
        "meta_ephemeris_type": 0,
        "meta_classification_type": "U",
        "meta_norad_cat_id": 39777,
        "meta_element_set_no": 999,
        "meta_rev_at_epoch": 60341,
        "meta_bstar": 0.0027053556,
        "meta_mean_motion_dot": 0.00012409,
        "meta_mean_motion_ddot": 0,
        "tle_line1": "1 39777U 97051AAJ 25357.46108480  .00012409  00000+0  27054-2 0  9993",
        "tle_line2": "2 39777  85.9633 169.8413 0060496 150.6140 209.8492 14.56662937603410"
      },
      "geometry": {
        "type": "Point",
        "coordinates": [
          -18.172303708350974,
          61.1636994524997
        ]
      }
    },
    {
      "type": "Feature",
      "properties": {
        "norad_id": 39778,
        "name": "IRIDIUM 33 DEB",
        "group": "iridium-33-debris",
        "lat": -35.71654023139,
        "lon": -139.3941029547011,
        "alt_km": 722.0908996715134,
        "timestamp": "2025-12-24T18:55:56.457065+00:00",
        "meta_object_name": "IRIDIUM 33 DEB",
        "meta_object_id": "1997-051AAK",
        "meta_epoch": "2025-12-21T20:35:18.523392",
        "meta_mean_motion": 14.54320185,
        "meta_eccentricity": 0.00069599,
        "meta_inclination": 86.3767,
        "meta_ra_of_asc_node": 39.2671,
        "meta_arg_of_pericenter": 13.6493,
        "meta_mean_anomaly": 346.4901,
        "meta_ephemeris_type": 0,
        "meta_classification_type": "U",
        "meta_norad_cat_id": 39778,
        "meta_element_set_no": 999,
        "meta_rev_at_epoch": 60825,
        "meta_bstar": 0.00075764417,
        "meta_mean_motion_dot": 3.235e-05,
        "meta_mean_motion_ddot": 0,
        "tle_line1": "1 39778U 97051AAK 25355.85785328  .00003235  00000+0  75764-3 0  9996",
        "tle_line2": "2 39778  86.3767  39.2671 0006959  13.6493 346.4901 14.54320185608257"
      },
      "geometry": {
        "type": "Point",
        "coordinates": [
          -139.3941029547011,
          -35.71654023139
        ]
      }
    },
    {
      "type": "Feature",
      "properties": {
        "norad_id": 39781,
        "name": "IRIDIUM 33 DEB",
        "group": "iridium-33-debris",
        "lat": -38.52279031005742,
        "lon": -109.88191331611307,
        "alt_km": 819.6876774693201,
        "timestamp": "2025-12-24T18:55:56.457075+00:00",
        "meta_object_name": "IRIDIUM 33 DEB",
        "meta_object_id": "1997-051AAN",
        "meta_epoch": "2025-12-20T00:15:44.286336",
        "meta_mean_motion": 14.2080867,
        "meta_eccentricity": 0.01741047,
        "meta_inclination": 86.3716,
        "meta_ra_of_asc_node": 254.9822,
        "meta_arg_of_pericenter": 249.9468,
        "meta_mean_anomaly": 125.5554,
        "meta_ephemeris_type": 0,
        "meta_classification_type": "U",
        "meta_norad_cat_id": 39781,
        "meta_element_set_no": 999,
        "meta_rev_at_epoch": 8210,
        "meta_bstar": 0.0030068331,
        "meta_mean_motion_dot": 7.585e-05,
        "meta_mean_motion_ddot": 0,
        "tle_line1": "1 39781U 97051AAN 25354.01092924  .00007585  00000+0  30068-2 0  9999",
        "tle_line2": "2 39781  86.3716 254.9822 0174104 249.9468 125.5554 14.20808670 82106"
      },
      "geometry": {
        "type": "Point",
        "coordinates": [
          -109.88191331611307,
          -38.52279031005742
        ]
      }
    },
    {
      "type": "Feature",
      "properties": {
        "norad_id": 40996,
        "name": "IRIDIUM 33 DEB",
        "group": "iridium-33-debris",
        "lat": 6.9892913021913285,
        "lon": 175.3283577667749,
        "alt_km": 585.1350411422809,
        "timestamp": "2025-12-24T18:55:56.457085+00:00",
        "meta_object_name": "IRIDIUM 33 DEB",
        "meta_object_id": "1997-051ABJ",
        "meta_epoch": "2025-12-21T06:48:04.268736",
        "meta_mean_motion": 14.9672554,
        "meta_eccentricity": 0.001126,
        "meta_inclination": 86.3507,
        "meta_ra_of_asc_node": 357.4159,
        "meta_arg_of_pericenter": 39.2145,
        "meta_mean_anomaly": 336.8251,
        "meta_ephemeris_type": 0,
        "meta_classification_type": "U",
        "meta_norad_cat_id": 40996,
        "meta_element_set_no": 999,
        "meta_rev_at_epoch": 62616,
        "meta_bstar": 0.0023808,
        "meta_mean_motion_dot": 0.00027327,
        "meta_mean_motion_ddot": 0,
        "tle_line1": "1 40996U 97051ABJ 25355.28338274  .00027327  00000+0  23808-2 0  9990",
        "tle_line2": "2 40996  86.3507 357.4159 0011260  39.2145 336.8251 14.96725540626169"
      },
      "geometry": {
        "type": "Point",
        "coordinates": [
          175.3283577667749,
          6.9892913021913285
        ]
      }
    },
    {
      "type": "Feature",
      "properties": {
        "norad_id": 40998,
        "name": "IRIDIUM 33 DEB",
        "group": "iridium-33-debris",
        "lat": -17.63587725474103,
        "lon": -130.3384295358592,
        "alt_km": 752.2090642993899,
        "timestamp": "2025-12-24T18:55:56.457095+00:00",
        "meta_object_name": "IRIDIUM 33 DEB",
        "meta_object_id": "1997-051ABL",
        "meta_epoch": "2025-12-19T22:16:12.052992",
        "meta_mean_motion": 14.4511921,
        "meta_eccentricity": 0.000918,
        "meta_inclination": 86.3822,
        "meta_ra_of_asc_node": 50.5853,
        "meta_arg_of_pericenter": 65.4089,
        "meta_mean_anomaly": 59.4922,
        "meta_ephemeris_type": 0,
        "meta_classification_type": "U",
        "meta_norad_cat_id": 40998,
        "meta_element_set_no": 999,
        "meta_rev_at_epoch": 6785,
        "meta_bstar": 0.00031233,
        "meta_mean_motion_dot": 1.112e-05,
        "meta_mean_motion_ddot": 0,
        "tle_line1": "1 40998U 97051ABL 25353.92791728  .00001112  00000+0  31233-3 0  9994",
        "tle_line2": "2 40998  86.3822  50.5853 0009180  65.4089  59.4922 14.45119210 67852"
      },
      "geometry": {
        "type": "Point",
        "coordinates": [
          -130.3384295358592,
          -17.63587725474103
        ]
      }
    },
    {
      "type": "Feature",
      "properties": {
        "norad_id": 46435,
        "name": "IRIDIUM 33 DEB",
        "group": "iridium-33-debris",
        "lat": -64.47889597931409,
        "lon": 16.592411695154272,
        "alt_km": 642.5997080331608,
        "timestamp": "2025-12-24T18:55:56.457106+00:00",
        "meta_object_name": "IRIDIUM 33 DEB",
        "meta_object_id": "1997-051ABN",
        "meta_epoch": "2025-12-23T07:26:56.673024",
        "meta_mean_motion": 14.32901113,
        "meta_eccentricity": 0.02063954,
        "meta_inclination": 86.2811,
        "meta_ra_of_asc_node": 189.3996,
        "meta_arg_of_pericenter": 241.8575,
        "meta_mean_anomaly": 300.4526,
        "meta_ephemeris_type": 0,
        "meta_classification_type": "U",
        "meta_norad_cat_id": 46435,
        "meta_element_set_no": 999,
        "meta_rev_at_epoch": 8067,
        "meta_bstar": 0.0098042113,
        "meta_mean_motion_dot": 0.00034078,
        "meta_mean_motion_ddot": 0,
        "tle_line1": "1 46435U 97051ABN 25357.31037816  .00034078  00000+0  98042-2 0  9991",
        "tle_line2": "2 46435  86.2811 189.3996 0206395 241.8575 300.4526 14.32901113 80678"
      },
      "geometry": {
        "type": "Point",
        "coordinates": [
          16.592411695154272,
          -64.47889597931409
        ]
      }
    }
  ]
}